{
  "type": "FeatureCollection",
  "features": [
    {
      "type": "Feature",
      "properties": {
        "norad_id": 29930,
        "name": "FENGYUN 1C DEB",
        "group": "fengyun-1c-debris",
        "lat": -66.94144705111403,
        "lon": 20.499339043999523,
        "alt_km": 948.2702898661519,
        "timestamp": "2025-12-06T09:34:17.186149+00:00",
        "meta_object_name": "FENGYUN 1C DEB",
        "meta_object_id": "1999-025JC",
        "meta_epoch": "2025-12-05T15:45:50.037696",
        "meta_mean_motion": 14.20804564,
        "meta_eccentricity": 0.01646646,
        "meta_inclination": 99.0445,
        "meta_ra_of_asc_node": 221.7137,
        "meta_arg_of_pericenter": 73.694,
        "meta_mean_anomaly": 341.8267,
        "meta_ephemeris_type": 0,
        "meta_classification_type": "U",
        "meta_norad_cat_id": 29930,
        "meta_element_set_no": 999,
        "meta_rev_at_epoch": 97790,
        "meta_bstar": 0.00040151332,
        "meta_mean_motion_dot": 9.48e-06,
        "meta_mean_motion_ddot": 0,
        "tle_line1": "1 29930U 99025JC  25339.65682914  .00000948  00000+0  40151-3 0  9995",
        "tle_line2": "2 29930  99.0445 221.7137 0164664  73.6940 341.8267 14.20804564977902"
      },
      "geometry": {
        "type": "Point",
        "coordinates": [
          20.499339043999523,
          -66.94144705111403
        ]
      }
    },
    {
      "type": "Feature",
      "properties": {
        "norad_id": 29931,
        "name": "FENGYUN 1C DEB",
        "group": "fengyun-1c-debris",
        "lat": -79.210870949636,
        "lon": 70.80680439789606,
        "alt_km": 910.638253644749,
        "timestamp": "2025-12-06T09:34:17.186159+00:00",
        "meta_object_name": "FENGYUN 1C DEB",
        "meta_object_id": "1999-025JD",
        "meta_epoch": "2025-12-05T21:08:07.358208",
        "meta_mean_motion": 14.03887995,
        "meta_eccentricity": 0.00326733,
        "meta_inclination": 98.8603,
        "meta_ra_of_asc_node": 15.3629,
        "meta_arg_of_pericenter": 112.139,
        "meta_mean_anomaly": 66.5746,
        "meta_ephemeris_type": 0,
        "meta_classification_type": "U",
        "meta_norad_cat_id": 29931,
        "meta_element_set_no": 999,
        "meta_rev_at_epoch": 96716,
        "meta_bstar": 0.00016322053,
        "meta_mean_motion_dot": 2.16e-06,
        "meta_mean_motion_ddot": 0,
        "tle_line1": "1 29931U 99025JD  25339.88064072  .00000216  00000+0  16322-3 0  9991",
        "tle_line2": "2 29931  98.8603  15.3629 0032673 112.1390  66.5746 14.03887995967161"
      },
      "geometry": {
        "type": "Point",
        "coordinates": [
          70.80680439789606,
          -79.210870949636
        ]
      }
    },
    {
      "type": "Feature",
      "properties": {
        "norad_id": 29932,
        "name": "FENGYUN 1C DEB",
        "group": "fengyun-1c-debris",
        "lat": 72.8850549304472,
        "lon": -38.29712169966888,
        "alt_km": 802.1535427075496,
        "timestamp": "2025-12-06T09:34:17.186169+00:00",
        "meta_object_name": "FENGYUN 1C DEB",
        "meta_object_id": "1999-025JE",
        "meta_epoch": "2025-12-05T18:47:51.065088",
        "meta_mean_motion": 14.16750353,
        "meta_eccentricity": 0.00386494,
        "meta_inclination": 98.6348,
        "meta_ra_of_asc_node": 350.6747,
        "meta_arg_of_pericenter": 89.9104,
        "meta_mean_anomaly": 87.5075,
        "meta_ephemeris_type": 0,
        "meta_classification_type": "U",
        "meta_norad_cat_id": 29932,
        "meta_element_set_no": 999,
        "meta_rev_at_epoch": 97485,
        "meta_bstar": 0.00047052553,
        "meta_mean_motion_dot": 9.06e-06,
        "meta_mean_motion_ddot": 0,
        "tle_line1": "1 29932U 99025JE  25339.78322992  .00000906  00000+0  47053-3 0  9990",
        "tle_line2": "2 29932  98.6348 350.6747 0038649  89.9104  87.5075 14.16750353974858"
      },
      "geometry": {
        "type": "Point",
        "coordinates": [
          -38.29712169966888,
          72.8850549304472
        ]
      }
    },
    {
      "type": "Feature",
      "properties": {
        "norad_id": 29933,
        "name": "FENGYUN 1C DEB",
        "group": "fengyun-1c-debris",
        "lat": 60.20861948917498,
        "lon": -81.20356680712696,
        "alt_km": 670.9429597185217,
        "timestamp": "2025-12-06T09:34:17.186180+00:00",
        "meta_object_name": "FENGYUN 1C DEB",
        "meta_object_id": "1999-025JF",
        "meta_epoch": "2025-12-05T13:25:23.233152",
        "meta_mean_motion": 14.65474901,
        "meta_eccentricity": 0.00037754,
        "meta_inclination": 98.7503,
        "meta_ra_of_asc_node": 82.2965,
        "meta_arg_of_pericenter": 358.4927,
        "meta_mean_anomaly": 13.4907,
        "meta_ephemeris_type": 0,
        "meta_classification_type": "U",
        "meta_norad_cat_id": 29933,
        "meta_element_set_no": 999,
        "meta_rev_at_epoch": 98400,
        "meta_bstar": 0.0064097196,
        "meta_mean_motion_dot": 0.00034837,
        "meta_mean_motion_ddot": 0,
        "tle_line1": "1 29933U 99025JF  25339.55929668  .00034837  00000+0  64097-2 0  9995",
        "tle_line2": "2 29933  98.7503  82.2965 0003775 358.4927  13.4907 14.65474901984008"
      },
      "geometry": {
        "type": "Point",
        "coordinates": [
          -81.20356680712696,
          60.20861948917498
        ]
      }
    },
    {
      "type": "Feature",
      "properties": {
        "norad_id": 29934,
        "name": "FENGYUN 1C DEB",
        "group": "fengyun-1c-debris",
        "lat": 80.5878176511403,
        "lon": -82.19242089543249,
        "alt_km": 744.8286138779358,
        "timestamp": "2025-12-06T09:34:17.186190+00:00",
        "meta_object_name": "FENGYUN 1C DEB",
        "meta_object_id": "1999-025JG",
        "meta_epoch": "2025-12-05T16:44:10.261536",
        "meta_mean_motion": 14.63686974,
        "meta_eccentricity": 0.01006127,
        "meta_inclination": 98.9046,
        "meta_ra_of_asc_node": 26.0014,
        "meta_arg_of_pericenter": 274.0773,
        "meta_mean_anomaly": 84.8932,
        "meta_ephemeris_type": 0,
        "meta_classification_type": "U",
        "meta_norad_cat_id": 29934,
        "meta_element_set_no": 999,
        "meta_rev_at_epoch": 99669,
        "meta_bstar": 0.001552944,
        "meta_mean_motion_dot": 8.646e-05,
        "meta_mean_motion_ddot": 0,
        "tle_line1": "1 29934U 99025JG  25339.69734099  .00008646  00000+0  15529-2 0  9998",
        "tle_line2": "2 29934  98.9046  26.0014 0100612 274.0773  84.8932 14.63686974996695"
      },
      "geometry": {
        "type": "Point",
        "coordinates": [
          -82.19242089543249,
          80.5878176511403
        ]
      }
    },
    {
      "type": "Feature",
      "properties": {
        "norad_id": 29935,
        "name": "FENGYUN 1C DEB",
        "group": "fengyun-1c-debris",
        "lat": -81.2511625841747,
        "lon": 147.60006319686778,
        "alt_km": 761.282683219013,
        "timestamp": "2025-12-06T09:34:17.186200+00:00",
        "meta_object_name": "FENGYUN 1C DEB",
        "meta_object_id": "1999-025JH",
        "meta_epoch": "2025-12-05T22:58:18.475392",
        "meta_mean_motion": 14.14232972,
        "meta_eccentricity": 0.01499168,
        "meta_inclination": 98.4625,
        "meta_ra_of_asc_node": 42.5103,
        "meta_arg_of_pericenter": 235.7283,
        "meta_mean_anomaly": 303.8387,
        "meta_ephemeris_type": 0,
        "meta_classification_type": "U",
        "meta_norad_cat_id": 29935,
        "meta_element_set_no": 999,
        "meta_rev_at_epoch": 97446,
        "meta_bstar": 0.00023362584,
        "meta_mean_motion_dot": 4.55e-06,
        "meta_mean_motion_ddot": 0,
        "tle_line1": "1 29935U 99025JH  25339.95715828  .00000455  00000+0  23363-3 0  9993",
        "tle_line2": "2 29935  98.4625  42.5103 0149916 235.7283 303.8387 14.14232972974466"
      },
      "geometry": {
        "type": "Point",
        "coordinates": [
          147.60006319686778,
          -81.2511625841747
        ]
      }
    },
    {
      "type": "Feature",
      "properties": {
        "norad_id": 29936,
        "name": "FENGYUN 1C DEB",
        "group": "fengyun-1c-debris",
        "lat": -5.1164667716596695,
        "lon": -87.02354396042028,
        "alt_km": 701.5282268222827,
        "timestamp": "2025-12-06T09:34:17.186210+00:00",
        "meta_object_name": "FENGYUN 1C DEB",
        "meta_object_id": "1999-025JJ",
        "meta_epoch": "2025-12-05T20:59:43.546848",
        "meta_mean_motion": 14.35297087,
        "meta_eccentricity": 0.01136503,
        "meta_inclination": 98.6562,
        "meta_ra_of_asc_node": 93.2324,
        "meta_arg_of_pericenter": 207.3839,
        "meta_mean_anomaly": 152.1327,
        "meta_ephemeris_type": 0,
        "meta_classification_type": "U",
        "meta_norad_cat_id": 29936,
        "meta_element_set_no": 999,
        "meta_rev_at_epoch": 98832,
        "meta_bstar": 0.00037882645,
        "meta_mean_motion_dot": 1.12e-05,
        "meta_mean_motion_ddot": 0,
        "tle_line1": "1 29936U 99025JJ  25339.87480957  .00001120  00000+0  37883-3 0  9999",
        "tle_line2": "2 29936  98.6562  93.2324 0113650 207.3839 152.1327 14.35297087988325"
      },
      "geometry": {
        "type": "Point",
        "coordinates": [
          -87.02354396042028,
          -5.1164667716596695
        ]
      }
    }
  ]
}